{"fetched_at":"2026-03-30T06:02:59Z","count":15439,"tles":[{"name":"STARLINK-5108","line1":"1 53992U 22125AE  26087.84012727  .00000148  00000+0  27373-4 0  9992","line2":"2 53992  53.2170 128.1490 0001321  88.0275 272.0869 15.08840537192344","category":"Starlink"}]}